[{"OBJECT_NAME":"SPACEVAN-001","OBJECT_ID":"2023-174AR","EPOCH":"2026-03-06T17:14:39.911136","MEAN_MOTION":15.56994212,"ECCENTRICITY":0.0010232,"INCLINATION":97.3882,"RA_OF_ASC_NODE":158.905,"ARG_OF_PERICENTER":98.6633,"MEAN_ANOMALY":261.5782,"EPHEMERIS_TYPE":0,"CLASSIFICATION_TYPE":"U","NORAD_CAT_ID":58295,"ELEMENT_SET_NO":999,"REV_AT_EPOCH":13019,"BSTAR":0.0002505511,"MEAN_MOTION_DOT":0.00018026,"MEAN_MOTION_DDOT":0},{"OBJECT_NAME":"STARLINK-36625","OBJECT_ID":"2026-022W","EPOCH":"2026-03-09T22:00:01.999584","MEAN_MOTION":15.72387083,"ECCENTRICITY":0.00018037,"INCLINATION":97.2852,"RA_OF_ASC_NODE":102.9474,"ARG_OF_PERICENTER":69.2323,"MEAN_ANOMALY":67.0001,"EPHEMERIS_TYPE":0,"CLASSIFICATION_TYPE":"U","NORAD_CAT_ID":67668,"ELEMENT_SET_NO":999,"REV_AT_EPOCH":608,"BSTAR":-0.016379487,"MEAN_MOTION_DOT":-0.01887596,"MEAN_MOTION_DDOT":0}]
